[{"OBJECT_NAME":"STARLINK-2725","OBJECT_ID":"2021-044AV","EPOCH":"2026-03-09T06:15:38.880288","MEAN_MOTION":15.30195858,"ECCENTRICITY":0.00012383,"INCLINATION":53.1605,"RA_OF_ASC_NODE":77.2652,"ARG_OF_PERICENTER":98.882,"MEAN_ANOMALY":261.2321,"EPHEMERIS_TYPE":0,"CLASSIFICATION_TYPE":"U","NORAD_CAT_ID":48681,"ELEMENT_SET_NO":999,"REV_AT_EPOCH":26429,"BSTAR":0.00025290557,"MEAN_MOTION_DOT":7.137e-5,"MEAN_MOTION_DDOT":0},{"OBJECT_NAME":"CUAVA-2","OBJECT_ID":"2024-149BM","EPOCH":"2026-03-09T11:16:09.234912","MEAN_MOTION":15.33611708,"ECCENTRICITY":0.00056694,"INCLINATION":97.3769,"RA_OF_ASC_NODE":149.9859,"ARG_OF_PERICENTER":291.2139,"MEAN_ANOMALY":68.8497,"EPHEMERIS_TYPE":0,"CLASSIFICATION_TYPE":"U","NORAD_CAT_ID":60527,"ELEMENT_SET_NO":999,"REV_AT_EPOCH":8687,"BSTAR":0.00047570318,"MEAN_MOTION_DOT":0.000154,"MEAN_MOTION_DDOT":0}]
